; X-Plore
; PCB Pen Plotter G-code
; Pen: 0.5mm

G21
G90
G92 X0 Y0 Z0
G00 Z5.0 F3000

; === TRACES ===
G00 X4.6100 Y5.4100
G00 Z0.0
G01 X5.8900 Y5.4100 F1000
G01 X7.5000 Y3.8000 F1000
G01 X27.8500 Y3.8000 F1000
G01 X29.4000 Y2.2500 F1000
G01 X45.2500 Y2.2500 F1000
G01 X72.3500 Y2.2500 F1000
G01 X78.5000 Y8.4000 F1000
G01 X78.5000 Y57.7000 F1000
G01 X77.1300 Y56.3300 F1000
G01 X74.8850 Y56.3300 F1000
G01 X73.5550 Y56.3300 F1000
G00 Z5.0
G00 X74.8850 Y56.3300
G00 Z0.0
G01 X74.8850 Y48.6850 F1000
G01 X73.1600 Y46.9600 F1000
G01 X57.5300 Y46.9600 F1000
G01 X57.5300 Y46.1300 F1000
G01 X56.0000 Y44.6000 F1000
G01 X46.4000 Y44.6000 F1000
G01 X40.4700 Y50.5300 F1000
G01 X40.4700 Y52.0900 F1000
G01 X40.3400 Y52.2200 F1000
G01 X34.5500 Y52.2200 F1000
G00 Z5.0
G00 X32.1000 Y48.6000
G00 Z0.0
G01 X30.7000 Y47.2000 F1000
G01 X30.7000 Y39.6000 F1000
G01 X36.7600 Y33.5400 F1000
G01 X38.0800 Y33.5400 F1000
G00 Z5.0
G00 X38.0800 Y31.0000
G00 Z0.0
G01 X35.9000 Y31.0000 F1000
G01 X35.2000 Y30.3000 F1000
G01 X35.2000 Y26.9000 F1000
G01 X36.1000 Y26.0000 F1000
G01 X71.4000 Y26.0000 F1000
G01 X75.5000 Y30.1000 F1000
G01 X75.5000 Y37.2000 F1000
G01 X72.2500 Y40.4500 F1000
G01 X70.8500 Y40.4500 F1000
G00 Z5.0
G00 X71.0150 Y37.1850
G00 Z0.0
G01 X71.0150 Y33.4700 F1000
G00 Z5.0
G00 X73.5550 Y33.4700
G00 Z0.0
G01 X73.5550 Y30.6550 F1000
G01 X70.4600 Y27.5600 F1000
G01 X38.9800 Y27.5600 F1000
G01 X38.0800 Y28.4600 F1000
G00 Z5.0
G00 X33.2000 Y28.4000
G00 Z0.0
G01 X33.3000 Y28.4000 F1000
G01 X33.3000 Y34.4000 F1000
G01 X29.2700 Y38.4300 F1000
G01 X27.4700 Y38.4300 F1000
G00 Z5.0
G00 X27.4700 Y35.8900
G00 Z0.0
G01 X24.8100 Y35.8900 F1000
G00 Z5.0
G00 X24.8000 Y35.9000
G00 Z0.0
G01 X24.6000 Y35.9000 F1000
G00 Z5.0
G00 X19.7000 Y36.0000
G00 Z0.0
G01 X19.6000 Y36.0000 F1000
G01 X18.3000 Y37.3000 F1000
G01 X18.3000 Y47.6000 F1000
G01 X15.1700 Y50.7300 F1000
G01 X4.8000 Y50.7300 F1000
G01 X4.2000 Y51.3300 F1000
G00 Z5.0
G00 X4.2000 Y53.8700
G00 Z0.0
G01 X4.2000 Y60.7300 F1000
G01 X5.7300 Y60.7300 F1000
G01 X7.0000 Y62.0000 F1000
G01 X7.0000 Y66.1000 F1000
G01 X8.0000 Y67.1000 F1000
G01 X8.6900 Y67.1000 F1000
G00 Z5.0
G00 X10.9000 Y68.6792
G00 Z0.0
G01 X10.9000 Y57.2000 F1000
G01 X12.0300 Y56.0700 F1000
G01 X13.3400 Y56.0700 F1000
G00 Z5.0
G00 X13.3400 Y58.6100
G00 Z0.0
G01 X13.7300 Y58.2200 F1000
G01 X36.5500 Y58.2200 F1000
G00 Z5.0
G00 X37.5500 Y56.3000
G00 Z0.0
G01 X20.1000 Y56.3000 F1000
G01 X16.4000 Y52.6000 F1000
G01 X11.9000 Y52.6000 F1000
G00 Z5.0
G00 X8.8000 Y54.3000
G00 Z0.0
G01 X8.8000 Y63.3900 F1000
G01 X8.7900 Y63.4000 F1000
G00 Z5.0
G00 X4.2000 Y63.2700
G00 Z0.0
G01 X4.2000 Y66.6000 F1000
G01 X6.2792 Y68.6792 F1000
G01 X10.9000 Y68.6792 F1000
G01 X14.7308 Y68.6792 F1000
G01 X16.3100 Y67.1000 F1000
G00 Z5.0
G00 X14.7308 Y68.6792
G00 Z0.0
G01 X49.1000 Y68.6792 F1000
G01 X60.1208 Y68.6792 F1000
G01 X61.3000 Y67.5000 F1000
G01 X61.3000 Y65.6400 F1000
G01 X61.2700 Y65.6100 F1000
G01 X61.2700 Y64.1300 F1000
G01 X62.0000 Y63.4000 F1000
G01 X68.0000 Y63.4000 F1000
G01 X70.0600 Y65.4600 F1000
G01 X74.6600 Y65.4600 F1000
G01 X74.7000 Y65.5000 F1000
G01 X76.0000 Y65.5000 F1000
G01 X77.2000 Y64.3000 F1000
G01 X77.2000 Y60.6000 F1000
G01 X75.4000 Y58.8000 F1000
G01 X72.7000 Y58.8000 F1000
G01 X71.0150 Y57.1150 F1000
G01 X71.0150 Y56.3300 F1000
G01 X73.3000 Y54.0450 F1000
G01 X73.3000 Y51.0000 F1000
G01 X71.8000 Y49.5000 F1000
G01 X57.5300 Y49.5000 F1000
G01 X55.1000 Y49.5000 F1000
G01 X54.3000 Y48.7000 F1000
G01 X54.3000 Y47.4000 F1000
G01 X53.5200 Y46.6200 F1000
G01 X51.0200 Y46.6200 F1000
G01 X50.9000 Y46.5000 F1000
G01 X46.7000 Y46.5000 F1000
G01 X42.2000 Y51.0000 F1000
G01 X42.2000 Y52.9000 F1000
G01 X41.2000 Y53.9000 F1000
G01 X29.2000 Y53.9000 F1000
G01 X23.9000 Y48.6000 F1000
G01 X32.1000 Y48.6000 F1000
G01 X40.4000 Y48.6000 F1000
G01 X46.4000 Y42.6000 F1000
G01 X72.1000 Y42.6000 F1000
G01 X76.9000 Y37.8000 F1000
G01 X76.9000 Y9.2000 F1000
G01 X74.8000 Y7.1000 F1000
G01 X69.8160 Y7.1000 F1000
G00 Z5.0
G00 X69.8160 Y12.1800
G00 Z0.0
G01 X61.3200 Y12.1800 F1000
G01 X52.0000 Y21.5000 F1000
G01 X37.2000 Y21.5000 F1000
G01 X36.3000 Y20.6000 F1000
G00 Z5.0
G00 X32.2700 Y18.4500
G00 Z0.0
G01 X46.1460 Y18.4500 F1000
G01 X47.4960 Y19.8000 F1000
G01 X49.4960 Y19.8000 F1000
G00 Z5.0
G00 X49.4960 Y17.2600
G00 Z0.0
G01 X49.5360 Y17.3000 F1000
G01 X52.1000 Y17.3000 F1000
G01 X52.8000 Y16.6000 F1000
G01 X52.8000 Y10.4000 F1000
G01 X52.0400 Y9.6400 F1000
G01 X49.4960 Y9.6400 F1000
G01 X45.3400 Y9.6400 F1000
G01 X44.0000 Y8.3000 F1000
G01 X44.0000 Y5.2000 F1000
G01 X42.7500 Y3.9500 F1000
G01 X30.2800 Y3.9500 F1000
G01 X28.8200 Y5.4100 F1000
G01 X27.4700 Y5.4100 F1000
G00 Z5.0
G00 X27.4700 Y7.9500
G00 Z0.0
G01 X32.3000 Y7.9500 F1000
G01 X33.7900 Y6.4600 F1000
G00 Z5.0
G00 X36.3300 Y6.4600
G00 Z0.0
G01 X36.3300 Y9.2300 F1000
G01 X37.7300 Y10.6300 F1000
G01 X41.9000 Y10.6300 F1000
G00 Z5.0
G00 X41.9000 Y13.1700
G00 Z0.0
G01 X42.0300 Y13.3000 F1000
G01 X42.4000 Y13.3000 F1000
G01 X42.3500 Y13.2500 F1000
G01 X33.2500 Y13.2500 F1000
G00 Z5.0
G00 X32.3000 Y15.5000
G00 Z0.0
G01 X36.3000 Y15.5000 F1000
G00 Z5.0
G00 X32.3000 Y15.5000
G00 Z0.0
G01 X29.6900 Y18.1100 F1000
G01 X27.4700 Y18.1100 F1000
G00 Z5.0
G00 X27.4700 Y20.6500
G00 Z0.0
G01 X30.0700 Y20.6500 F1000
G01 X32.2700 Y18.4500 F1000
G00 Z5.0
G00 X27.4700 Y15.5700
G00 Z0.0
G01 X22.1300 Y15.5700 F1000
G01 X16.7008 Y20.9992 F1000
G01 X16.7008 Y46.6992 F1000
G01 X14.9000 Y48.5000 F1000
G01 X8.8000 Y48.5000 F1000
G00 Z5.0
G00 X11.9000 Y45.2000
G00 Z0.0
G01 X11.9000 Y19.4000 F1000
G01 X20.8100 Y10.4900 F1000
G01 X27.4700 Y10.4900 F1000
G00 Z5.0
G00 X27.4700 Y13.0300
G00 Z0.0
G01 X21.5700 Y13.0300 F1000
G01 X14.3000 Y20.3000 F1000
G01 X14.3000 Y44.9000 F1000
G00 Z5.0
G00 X20.3000 Y45.0000
G00 Z0.0
G01 X20.3000 Y47.0000 F1000
G01 X28.4000 Y55.1000 F1000
G01 X42.0500 Y55.1000 F1000
G01 X44.2300 Y52.9200 F1000
G01 X44.2300 Y52.8000 F1000
G00 Z5.0
G00 X46.7700 Y52.8000
G00 Z0.0
G01 X49.0000 Y52.8000 F1000
G01 X49.1000 Y52.9000 F1000
G00 Z5.0
G00 X52.6000 Y52.9000
G00 Z0.0
G01 X54.9450 Y52.9000 F1000
G01 X55.7750 Y53.7300 F1000
G01 X55.7750 Y56.3300 F1000
G00 Z5.0
G00 X58.3150 Y56.3300
G00 Z0.0
G01 X58.3150 Y57.3850 F1000
G01 X57.3000 Y58.4000 F1000
G01 X53.8000 Y58.4000 F1000
G01 X52.5000 Y57.1000 F1000
G00 Z5.0
G00 X44.1300 Y57.1000
G00 Z0.0
G01 X38.3500 Y57.1000 F1000
G01 X37.5500 Y56.3000 F1000
G00 Z5.0
G00 X38.5000 Y64.2200
G00 Z0.0
G01 X34.5500 Y64.2200 F1000
G00 Z5.0
G00 X38.5000 Y64.2200
G00 Z0.0
G01 X40.4700 Y62.2500 F1000
G01 X42.0800 Y60.6400 F1000
G01 X45.6600 Y60.6400 F1000
G00 Z5.0
G00 X46.9300 Y62.5450
G00 Z0.0
G01 X46.9300 Y64.2700 F1000
G01 X45.2000 Y66.0000 F1000
G01 X19.0100 Y66.0000 F1000
G01 X16.4100 Y63.4000 F1000
G00 Z5.0
G00 X22.3500 Y64.2200
G00 Z0.0
G01 X25.8700 Y60.7000 F1000
G01 X39.6000 Y60.7000 F1000
G01 X41.0000 Y59.3000 F1000
G01 X50.8000 Y59.3000 F1000
G01 X51.0000 Y59.3000 F1000
G01 X51.0000 Y49.1800 F1000
G01 X51.0200 Y49.1600 F1000
G00 Z5.0
G00 X49.0000 Y57.1000
G00 Z0.0
G01 X46.6700 Y57.1000 F1000
G00 Z5.0
G00 X48.2000 Y60.6400
G00 Z0.0
G01 X49.5400 Y60.6400 F1000
G01 X50.7000 Y61.8000 F1000
G01 X50.7000 Y67.0792 F1000
G01 X49.1000 Y68.6792 F1000
G00 Z5.0
G00 X52.0000 Y60.5000
G00 Z0.0
G01 X57.7000 Y60.5000 F1000
G01 X58.7300 Y61.5300 F1000
G01 X58.7300 Y65.6100 F1000
G00 Z5.0
G00 X63.8100 Y65.6100
G00 Z0.0
G01 X63.8100 Y67.5100 F1000
G01 X64.8000 Y68.5000 F1000
G01 X75.9000 Y68.5000 F1000
G01 X78.5000 Y65.9000 F1000
G01 X78.5000 Y57.7000 F1000
G00 Z5.0
G00 X74.6600 Y62.9200
G00 Z0.0
G01 X72.2400 Y60.5000 F1000
G01 X57.7000 Y60.5000 F1000
G00 Z5.0
G00 X52.0000 Y60.5000
G00 Z0.0
G01 X50.8000 Y59.3000 F1000
G00 Z5.0
G00 X40.6600 Y46.2400
G00 Z0.0
G01 X38.0800 Y46.2400 F1000
G00 Z5.0
G00 X38.0800 Y43.7000
G00 Z0.0
G01 X40.5000 Y43.7000 F1000
G01 X44.8000 Y39.4000 F1000
G01 X61.0000 Y39.4000 F1000
G01 X63.3950 Y37.0050 F1000
G01 X63.3950 Y33.4700 F1000
G00 Z5.0
G00 X65.9350 Y33.4700
G00 Z0.0
G01 X65.9350 Y29.9350 F1000
G01 X64.9000 Y28.9000 F1000
G01 X54.2000 Y28.9000 F1000
G01 X47.2000 Y35.9000 F1000
G01 X42.9000 Y35.9000 F1000
G01 X40.1800 Y38.6200 F1000
G01 X38.0800 Y38.6200 F1000
G00 Z5.0
G00 X38.0800 Y41.1600
G00 Z0.0
G01 X40.3400 Y41.1600 F1000
G01 X43.9500 Y37.5500 F1000
G01 X48.1500 Y37.5500 F1000
G01 X55.0000 Y30.7000 F1000
G01 X63.4000 Y30.7000 F1000
G00 Z5.0
G00 X68.6500 Y30.5500
G00 Z0.0
G01 X68.6500 Y33.2950 F1000
G01 X68.4750 Y33.4700 F1000
G00 Z5.0
G00 X71.0150 Y37.1850
G00 Z0.0
G01 X67.3000 Y40.9000 F1000
G01 X46.0000 Y40.9000 F1000
G01 X40.6600 Y46.2400 F1000
G00 Z5.0
G00 X23.9000 Y48.6000
G00 Z0.0
G01 X22.5000 Y47.2000 F1000
G01 X22.5000 Y27.2000 F1000
G01 X23.9700 Y25.7300 F1000
G01 X27.4700 Y25.7300 F1000
G00 Z5.0
G00 X27.4700 Y23.1900
G00 Z0.0
G01 X52.9100 Y23.1900 F1000
G01 X61.3800 Y14.7200 F1000
G01 X69.8160 Y14.7200 F1000
G00 Z5.0
G00 X69.8160 Y17.2600
G00 Z0.0
G01 X61.5400 Y17.2600 F1000
G01 X54.1000 Y24.7000 F1000
G01 X31.8000 Y24.7000 F1000
G01 X30.5000 Y26.0000 F1000
G01 X30.5000 Y28.9000 F1000
G01 X28.5900 Y30.8100 F1000
G01 X27.4700 Y30.8100 F1000
G00 Z5.0
G00 X38.9100 Y6.5000
G00 Z0.0
G01 X38.8700 Y6.4600 F1000
G00 Z5.0
G00 X38.9100 Y6.5000
G00 Z0.0
G01 X42.1000 Y6.5000 F1000
G01 X42.1000 Y6.6000 F1000
G00 Z5.0
G00 X45.9000 Y6.5000
G00 Z0.0
G01 X45.9000 Y4.1500 F1000
G01 X44.0000 Y2.2500 F1000
G01 X45.1000 Y2.2500 F1000
G00 Z5.0
G00 X68.4750 Y52.6250
G00 Z0.0
G01 X68.4750 Y56.3300 F1000
G00 Z5.0
G00 X68.4750 Y52.6250
G00 Z0.0
G01 X69.6000 Y51.5000 F1000
G01 X70.8000 Y51.5000 F1000

; === PADS/VIAS ===
G00 Z5.0
G00 X70.2500 Y50.9500
G00 Z0.0
G01 X71.3500 Y50.9500 F1000
G01 X71.3500 Y52.0500
G01 X70.2500 Y52.0500
G01 X70.2500 Y50.9500
G01 X70.5500 Y51.2500
G01 X71.0500 Y51.2500
G01 X71.0500 Y51.7500
G01 X70.5500 Y51.7500
G01 X70.5500 Y51.2500
G00 Z5.0
G00 X70.2610 Y55.5760
G00 Z0.0
G01 X71.7690 Y55.5760 F1000
G01 X71.7690 Y57.0840
G01 X70.2610 Y57.0840
G01 X70.2610 Y55.5760
G01 X70.5150 Y55.8300
G01 X71.5150 Y55.8300
G01 X71.5150 Y56.8300
G01 X70.5150 Y56.8300
G01 X70.5150 Y55.8300
G00 Z5.0
G00 X67.7210 Y55.5760
G00 Z0.0
G01 X69.2290 Y55.5760 F1000
G01 X69.2290 Y57.0840
G01 X67.7210 Y57.0840
G01 X67.7210 Y55.5760
G01 X67.9750 Y55.8300
G01 X68.9750 Y55.8300
G01 X68.9750 Y56.8300
G01 X67.9750 Y56.8300
G01 X67.9750 Y55.8300
G00 Z5.0
G00 X65.1810 Y55.5760
G00 Z0.0
G01 X66.6890 Y55.5760 F1000
G01 X66.6890 Y57.0840
G01 X65.1810 Y57.0840
G01 X65.1810 Y55.5760
G01 X65.4350 Y55.8300
G01 X66.4350 Y55.8300
G01 X66.4350 Y56.8300
G01 X65.4350 Y56.8300
G01 X65.4350 Y55.8300
G00 Z5.0
G00 X62.6410 Y55.5760
G00 Z0.0
G01 X64.1490 Y55.5760 F1000
G01 X64.1490 Y57.0840
G01 X62.6410 Y57.0840
G01 X62.6410 Y55.5760
G01 X62.8950 Y55.8300
G01 X63.8950 Y55.8300
G01 X63.8950 Y56.8300
G01 X62.8950 Y56.8300
G01 X62.8950 Y55.8300
G00 Z5.0
G00 X60.1010 Y55.5760
G00 Z0.0
G01 X61.6090 Y55.5760 F1000
G01 X61.6090 Y57.0840
G01 X60.1010 Y57.0840
G01 X60.1010 Y55.5760
G01 X60.3550 Y55.8300
G01 X61.3550 Y55.8300
G01 X61.3550 Y56.8300
G01 X60.3550 Y56.8300
G01 X60.3550 Y55.8300
G00 Z5.0
G00 X57.5610 Y55.5760
G00 Z0.0
G01 X59.0690 Y55.5760 F1000
G01 X59.0690 Y57.0840
G01 X57.5610 Y57.0840
G01 X57.5610 Y55.5760
G01 X57.8150 Y55.8300
G01 X58.8150 Y55.8300
G01 X58.8150 Y56.8300
G01 X57.8150 Y56.8300
G01 X57.8150 Y55.8300
G00 Z5.0
G00 X55.0210 Y55.5760
G00 Z0.0
G01 X56.5290 Y55.5760 F1000
G01 X56.5290 Y57.0840
G01 X55.0210 Y57.0840
G01 X55.0210 Y55.5760
G01 X55.2750 Y55.8300
G01 X56.2750 Y55.8300
G01 X56.2750 Y56.8300
G01 X55.2750 Y56.8300
G01 X55.2750 Y55.8300
G00 Z5.0
G00 X51.8250 Y56.4250
G00 Z0.0
G01 X53.1750 Y56.4250 F1000
G01 X53.1750 Y57.7750
G01 X51.8250 Y57.7750
G01 X51.8250 Y56.4250
G01 X52.0500 Y56.6500
G01 X52.9500 Y56.6500
G01 X52.9500 Y57.5500
G01 X52.0500 Y57.5500
G01 X52.0500 Y56.6500
G00 Z5.0
G00 X48.3250 Y56.4250
G00 Z0.0
G01 X49.6750 Y56.4250 F1000
G01 X49.6750 Y57.7750
G01 X48.3250 Y57.7750
G01 X48.3250 Y56.4250
G01 X48.5500 Y56.6500
G01 X49.4500 Y56.6500
G01 X49.4500 Y57.5500
G01 X48.5500 Y57.5500
G01 X48.5500 Y56.6500
G00 Z5.0
G00 X45.9080 Y55.5760
G00 Z0.0
G01 X47.4320 Y55.5760 F1000
G01 X47.4320 Y58.6240
G01 X45.9080 Y58.6240
G01 X45.9080 Y55.5760
G01 X46.1620 Y56.5920
G01 X47.1780 Y56.5920
G01 X47.1780 Y57.6080
G01 X46.1620 Y57.6080
G01 X46.1620 Y56.5920
G00 Z5.0
G00 X43.3680 Y55.5760
G00 Z0.0
G01 X44.8920 Y55.5760 F1000
G01 X44.8920 Y58.6240
G01 X43.3680 Y58.6240
G01 X43.3680 Y55.5760
G01 X43.6220 Y56.5920
G01 X44.6380 Y56.5920
G01 X44.6380 Y57.6080
G01 X43.6220 Y57.6080
G01 X43.6220 Y56.5920
G00 Z5.0
G00 X44.7657 Y59.7457
G00 Z0.0
G01 X46.5543 Y59.7457 F1000
G01 X46.5543 Y61.5343
G01 X44.7657 Y61.5343
G01 X44.7657 Y59.7457
G01 X45.2535 Y60.2335
G01 X46.0665 Y60.2335
G01 X46.0665 Y61.0465
G01 X45.2535 Y61.0465
G01 X45.2535 Y60.2335
G00 Z5.0
G00 X46.0357 Y61.6507
G00 Z0.0
G01 X47.8243 Y61.6507 F1000
G01 X47.8243 Y63.4393
G01 X46.0357 Y63.4393
G01 X46.0357 Y61.6507
G01 X46.5235 Y62.1385
G01 X47.3365 Y62.1385
G01 X47.3365 Y62.9515
G01 X46.5235 Y62.9515
G01 X46.5235 Y62.1385
G00 Z5.0
G00 X47.3057 Y59.7457
G00 Z0.0
G01 X49.0943 Y59.7457 F1000
G01 X49.0943 Y61.5343
G01 X47.3057 Y61.5343
G01 X47.3057 Y59.7457
G01 X47.7935 Y60.2335
G01 X48.6065 Y60.2335
G01 X48.6065 Y61.0465
G01 X47.7935 Y61.0465
G01 X47.7935 Y60.2335
G00 Z5.0
G00 X48.4250 Y52.2250
G00 Z0.0
G01 X49.7750 Y52.2250 F1000
G01 X49.7750 Y53.5750
G01 X48.4250 Y53.5750
G01 X48.4250 Y52.2250
G01 X48.6500 Y52.4500
G01 X49.5500 Y52.4500
G01 X49.5500 Y53.3500
G01 X48.6500 Y53.3500
G01 X48.6500 Y52.4500
G00 Z5.0
G00 X46.0080 Y51.2760
G00 Z0.0
G01 X47.5320 Y51.2760 F1000
G01 X47.5320 Y54.3240
G01 X46.0080 Y54.3240
G01 X46.0080 Y51.2760
G01 X46.2620 Y52.2920
G01 X47.2780 Y52.2920
G01 X47.2780 Y53.3080
G01 X46.2620 Y53.3080
G01 X46.2620 Y52.2920
G00 Z5.0
G00 X43.4680 Y51.2760
G00 Z0.0
G01 X44.9920 Y51.2760 F1000
G01 X44.9920 Y54.3240
G01 X43.4680 Y54.3240
G01 X43.4680 Y51.2760
G01 X43.7220 Y52.2920
G01 X44.7380 Y52.2920
G01 X44.7380 Y53.3080
G01 X43.7220 Y53.3080
G01 X43.7220 Y52.2920
G00 Z5.0
G00 X39.2402 Y50.8602
G00 Z0.0
G01 X41.6998 Y50.8602 F1000
G01 X41.6998 Y53.3198
G01 X39.2402 Y53.3198
G01 X39.2402 Y50.8602
G01 X39.9110 Y51.5310
G01 X41.0290 Y51.5310
G01 X41.0290 Y52.6490
G01 X39.9110 Y52.6490
G01 X39.9110 Y51.5310
G00 Z5.0
G00 X33.5600 Y51.2300
G00 Z0.0
G01 X35.5400 Y51.2300 F1000
G01 X35.5400 Y53.2100
G01 X33.5600 Y53.2100
G01 X33.5600 Y51.2300
G01 X33.8900 Y51.5600
G01 X35.2100 Y51.5600
G01 X35.2100 Y52.8800
G01 X33.8900 Y52.8800
G01 X33.8900 Y51.5600
G00 Z5.0
G00 X35.5825 Y57.2525
G00 Z0.0
G01 X37.5175 Y57.2525 F1000
G01 X37.5175 Y59.1875
G01 X35.5825 Y59.1875
G01 X35.5825 Y57.2525
G01 X35.9050 Y57.5750
G01 X37.1950 Y57.5750
G01 X37.1950 Y58.8650
G01 X35.9050 Y58.8650
G01 X35.9050 Y57.5750
G00 Z5.0
G00 X39.2402 Y61.0202
G00 Z0.0
G01 X41.6998 Y61.0202 F1000
G01 X41.6998 Y63.4798
G01 X39.2402 Y63.4798
G01 X39.2402 Y61.0202
G01 X39.9110 Y61.6910
G01 X41.0290 Y61.6910
G01 X41.0290 Y62.8090
G01 X39.9110 Y62.8090
G01 X39.9110 Y61.6910
G00 Z5.0
G00 X33.5600 Y63.2300
G00 Z0.0
G01 X35.5400 Y63.2300 F1000
G01 X35.5400 Y65.2100
G01 X33.5600 Y65.2100
G01 X33.5600 Y63.2300
G01 X33.8900 Y63.5600
G01 X35.2100 Y63.5600
G01 X35.2100 Y64.8800
G01 X33.8900 Y64.8800
G01 X33.8900 Y63.5600
G00 Z5.0
G00 X21.3600 Y63.2300
G00 Z0.0
G01 X23.3400 Y63.2300 F1000
G01 X23.3400 Y65.2100
G01 X21.3600 Y65.2100
G01 X21.3600 Y63.2300
G01 X21.6900 Y63.5600
G01 X23.0100 Y63.5600
G01 X23.0100 Y64.8800
G01 X21.6900 Y64.8800
G01 X21.6900 Y63.5600
G00 Z5.0
G00 X15.5157 Y62.5057
G00 Z0.0
G01 X17.3043 Y62.5057 F1000
G01 X17.3043 Y64.2943
G01 X15.5157 Y64.2943
G01 X15.5157 Y62.5057
G01 X16.0035 Y62.9935
G01 X16.8165 Y62.9935
G01 X16.8165 Y63.8065
G01 X16.0035 Y63.8065
G01 X16.0035 Y62.9935
G00 Z5.0
G00 X15.4157 Y66.2057
G00 Z0.0
G01 X17.2043 Y66.2057 F1000
G01 X17.2043 Y67.9943
G01 X15.4157 Y67.9943
G01 X15.4157 Y66.2057
G01 X15.9035 Y66.6935
G01 X16.7165 Y66.6935
G01 X16.7165 Y67.5065
G01 X15.9035 Y67.5065
G01 X15.9035 Y66.6935
G00 Z5.0
G00 X7.7957 Y66.2057
G00 Z0.0
G01 X9.5843 Y66.2057 F1000
G01 X9.5843 Y67.9943
G01 X7.7957 Y67.9943
G01 X7.7957 Y66.2057
G01 X8.2835 Y66.6935
G01 X9.0965 Y66.6935
G01 X9.0965 Y67.5065
G01 X8.2835 Y67.5065
G01 X8.2835 Y66.6935
G00 Z5.0
G00 X7.8957 Y62.5057
G00 Z0.0
G01 X9.6843 Y62.5057 F1000
G01 X9.6843 Y64.2943
G01 X7.8957 Y64.2943
G01 X7.8957 Y62.5057
G01 X8.3835 Y62.9935
G01 X9.1965 Y62.9935
G01 X9.1965 Y63.8065
G01 X8.3835 Y63.8065
G01 X8.3835 Y62.9935
G00 Z5.0
G00 X2.6760 Y62.5080
G00 Z0.0
G01 X5.7240 Y62.5080 F1000
G01 X5.7240 Y64.0320
G01 X2.6760 Y64.0320
G01 X2.6760 Y62.5080
G01 X3.6920 Y62.7620
G01 X4.7080 Y62.7620
G01 X4.7080 Y63.7780
G01 X3.6920 Y63.7780
G01 X3.6920 Y62.7620
G00 Z5.0
G00 X2.6760 Y59.9680
G00 Z0.0
G01 X5.7240 Y59.9680 F1000
G01 X5.7240 Y61.4920
G01 X2.6760 Y61.4920
G01 X2.6760 Y59.9680
G01 X3.6920 Y60.2220
G01 X4.7080 Y60.2220
G01 X4.7080 Y61.2380
G01 X3.6920 Y61.2380
G01 X3.6920 Y60.2220
G00 Z5.0
G00 X2.6760 Y53.1080
G00 Z0.0
G01 X5.7240 Y53.1080 F1000
G01 X5.7240 Y54.6320
G01 X2.6760 Y54.6320
G01 X2.6760 Y53.1080
G01 X3.6920 Y53.3620
G01 X4.7080 Y53.3620
G01 X4.7080 Y54.3780
G01 X3.6920 Y54.3780
G01 X3.6920 Y53.3620
G00 Z5.0
G00 X2.6760 Y50.5680
G00 Z0.0
G01 X5.7240 Y50.5680 F1000
G01 X5.7240 Y52.0920
G01 X2.6760 Y52.0920
G01 X2.6760 Y50.5680
G01 X3.6920 Y50.8220
G01 X4.7080 Y50.8220
G01 X4.7080 Y51.8380
G01 X3.6920 Y51.8380
G01 X3.6920 Y50.8220
G00 Z5.0
G00 X8.2500 Y47.9500
G00 Z0.0
G01 X9.3500 Y47.9500 F1000
G01 X9.3500 Y49.0500
G01 X8.2500 Y49.0500
G01 X8.2500 Y47.9500
G01 X8.5500 Y48.2500
G01 X9.0500 Y48.2500
G01 X9.0500 Y48.7500
G01 X8.5500 Y48.7500
G01 X8.5500 Y48.2500
G00 Z5.0
G00 X11.3500 Y44.6500
G00 Z0.0
G01 X12.4500 Y44.6500 F1000
G01 X12.4500 Y45.7500
G01 X11.3500 Y45.7500
G01 X11.3500 Y44.6500
G01 X11.6500 Y44.9500
G01 X12.1500 Y44.9500
G01 X12.1500 Y45.4500
G01 X11.6500 Y45.4500
G01 X11.6500 Y44.9500
G00 Z5.0
G00 X13.7500 Y44.3500
G00 Z0.0
G01 X14.8500 Y44.3500 F1000
G01 X14.8500 Y45.4500
G01 X13.7500 Y45.4500
G01 X13.7500 Y44.3500
G01 X14.0500 Y44.6500
G01 X14.5500 Y44.6500
G01 X14.5500 Y45.1500
G01 X14.0500 Y45.1500
G01 X14.0500 Y44.6500
G00 Z5.0
G00 X19.7500 Y44.4500
G00 Z0.0
G01 X20.8500 Y44.4500 F1000
G01 X20.8500 Y45.5500
G01 X19.7500 Y45.5500
G01 X19.7500 Y44.4500
G01 X20.0500 Y44.7500
G01 X20.5500 Y44.7500
G01 X20.5500 Y45.2500
G01 X20.0500 Y45.2500
G01 X20.0500 Y44.7500
G00 Z5.0
G00 X21.3600 Y51.2300
G00 Z0.0
G01 X23.3400 Y51.2300 F1000
G01 X23.3400 Y53.2100
G01 X21.3600 Y53.2100
G01 X21.3600 Y51.2300
G01 X21.6900 Y51.5600
G01 X23.0100 Y51.5600
G01 X23.0100 Y52.8800
G01 X21.6900 Y52.8800
G01 X21.6900 Y51.5600
G00 Z5.0
G00 X11.8160 Y55.3080
G00 Z0.0
G01 X14.8640 Y55.3080 F1000
G01 X14.8640 Y56.8320
G01 X11.8160 Y56.8320
G01 X11.8160 Y55.3080
G01 X12.8320 Y55.5620
G01 X13.8480 Y55.5620
G01 X13.8480 Y56.5780
G01 X12.8320 Y56.5780
G01 X12.8320 Y55.5620
G00 Z5.0
G00 X11.8160 Y57.8480
G00 Z0.0
G01 X14.8640 Y57.8480 F1000
G01 X14.8640 Y59.3720
G01 X11.8160 Y59.3720
G01 X11.8160 Y57.8480
G01 X12.8320 Y58.1020
G01 X13.8480 Y58.1020
G01 X13.8480 Y59.1180
G01 X12.8320 Y59.1180
G01 X12.8320 Y58.1020
G00 Z5.0
G00 X11.3500 Y52.0500
G00 Z0.0
G01 X12.4500 Y52.0500 F1000
G01 X12.4500 Y53.1500
G01 X11.3500 Y53.1500
G01 X11.3500 Y52.0500
G01 X11.6500 Y52.3500
G01 X12.1500 Y52.3500
G01 X12.1500 Y52.8500
G01 X11.6500 Y52.8500
G01 X11.6500 Y52.3500
G00 Z5.0
G00 X8.2500 Y53.7500
G00 Z0.0
G01 X9.3500 Y53.7500 F1000
G01 X9.3500 Y54.8500
G01 X8.2500 Y54.8500
G01 X8.2500 Y53.7500
G01 X8.5500 Y54.0500
G01 X9.0500 Y54.0500
G01 X9.0500 Y54.5500
G01 X8.5500 Y54.5500
G01 X8.5500 Y54.0500
G00 Z5.0
G00 X3.7337 Y40.0937
G00 Z0.0
G01 X5.4863 Y40.0937 F1000
G01 X5.4863 Y41.8463
G01 X3.7337 Y41.8463
G01 X3.7337 Y40.0937
G01 X4.1655 Y40.5255
G01 X5.0545 Y40.5255
G01 X5.0545 Y41.4145
G01 X4.1655 Y41.4145
G01 X4.1655 Y40.5255
G00 Z5.0
G00 X3.7337 Y37.5537
G00 Z0.0
G01 X5.4863 Y37.5537 F1000
G01 X5.4863 Y39.3063
G01 X3.7337 Y39.3063
G01 X3.7337 Y37.5537
G01 X4.1655 Y37.9855
G01 X5.0545 Y37.9855
G01 X5.0545 Y38.8745
G01 X4.1655 Y38.8745
G01 X4.1655 Y37.9855
G00 Z5.0
G00 X3.7337 Y35.0137
G00 Z0.0
G01 X5.4863 Y35.0137 F1000
G01 X5.4863 Y36.7663
G01 X3.7337 Y36.7663
G01 X3.7337 Y35.0137
G01 X4.1655 Y35.4455
G01 X5.0545 Y35.4455
G01 X5.0545 Y36.3345
G01 X4.1655 Y36.3345
G01 X4.1655 Y35.4455
G00 Z5.0
G00 X3.7337 Y32.4737
G00 Z0.0
G01 X5.4863 Y32.4737 F1000
G01 X5.4863 Y34.2263
G01 X3.7337 Y34.2263
G01 X3.7337 Y32.4737
G01 X4.1655 Y32.9055
G01 X5.0545 Y32.9055
G01 X5.0545 Y33.7945
G01 X4.1655 Y33.7945
G01 X4.1655 Y32.9055
G00 Z5.0
G00 X3.7337 Y29.9337
G00 Z0.0
G01 X5.4863 Y29.9337 F1000
G01 X5.4863 Y31.6863
G01 X3.7337 Y31.6863
G01 X3.7337 Y29.9337
G01 X4.1655 Y30.3655
G01 X5.0545 Y30.3655
G01 X5.0545 Y31.2545
G01 X4.1655 Y31.2545
G01 X4.1655 Y30.3655
G00 Z5.0
G00 X3.7337 Y27.3937
G00 Z0.0
G01 X5.4863 Y27.3937 F1000
G01 X5.4863 Y29.1463
G01 X3.7337 Y29.1463
G01 X3.7337 Y27.3937
G01 X4.1655 Y27.8255
G01 X5.0545 Y27.8255
G01 X5.0545 Y28.7145
G01 X4.1655 Y28.7145
G01 X4.1655 Y27.8255
G00 Z5.0
G00 X3.7337 Y24.8537
G00 Z0.0
G01 X5.4863 Y24.8537 F1000
G01 X5.4863 Y26.6063
G01 X3.7337 Y26.6063
G01 X3.7337 Y24.8537
G01 X4.1655 Y25.2855
G01 X5.0545 Y25.2855
G01 X5.0545 Y26.1745
G01 X4.1655 Y26.1745
G01 X4.1655 Y25.2855
G00 Z5.0
G00 X3.7337 Y22.3137
G00 Z0.0
G01 X5.4863 Y22.3137 F1000
G01 X5.4863 Y24.0663
G01 X3.7337 Y24.0663
G01 X3.7337 Y22.3137
G01 X4.1655 Y22.7455
G01 X5.0545 Y22.7455
G01 X5.0545 Y23.6345
G01 X4.1655 Y23.6345
G01 X4.1655 Y22.7455
G00 Z5.0
G00 X3.7337 Y19.7737
G00 Z0.0
G01 X5.4863 Y19.7737 F1000
G01 X5.4863 Y21.5263
G01 X3.7337 Y21.5263
G01 X3.7337 Y19.7737
G01 X4.1655 Y20.2055
G01 X5.0545 Y20.2055
G01 X5.0545 Y21.0945
G01 X4.1655 Y21.0945
G01 X4.1655 Y20.2055
G00 Z5.0
G00 X3.7337 Y17.2337
G00 Z0.0
G01 X5.4863 Y17.2337 F1000
G01 X5.4863 Y18.9863
G01 X3.7337 Y18.9863
G01 X3.7337 Y17.2337
G01 X4.1655 Y17.6655
G01 X5.0545 Y17.6655
G01 X5.0545 Y18.5545
G01 X4.1655 Y18.5545
G01 X4.1655 Y17.6655
G00 Z5.0
G00 X3.7337 Y14.6937
G00 Z0.0
G01 X5.4863 Y14.6937 F1000
G01 X5.4863 Y16.4463
G01 X3.7337 Y16.4463
G01 X3.7337 Y14.6937
G01 X4.1655 Y15.1255
G01 X5.0545 Y15.1255
G01 X5.0545 Y16.0145
G01 X4.1655 Y16.0145
G01 X4.1655 Y15.1255
G00 Z5.0
G00 X3.7337 Y12.1537
G00 Z0.0
G01 X5.4863 Y12.1537 F1000
G01 X5.4863 Y13.9063
G01 X3.7337 Y13.9063
G01 X3.7337 Y12.1537
G01 X4.1655 Y12.5855
G01 X5.0545 Y12.5855
G01 X5.0545 Y13.4745
G01 X4.1655 Y13.4745
G01 X4.1655 Y12.5855
G00 Z5.0
G00 X3.7337 Y9.6137
G00 Z0.0
G01 X5.4863 Y9.6137 F1000
G01 X5.4863 Y11.3663
G01 X3.7337 Y11.3663
G01 X3.7337 Y9.6137
G01 X4.1655 Y10.0455
G01 X5.0545 Y10.0455
G01 X5.0545 Y10.9345
G01 X4.1655 Y10.9345
G01 X4.1655 Y10.0455
G00 Z5.0
G00 X3.7337 Y7.0737
G00 Z0.0
G01 X5.4863 Y7.0737 F1000
G01 X5.4863 Y8.8263
G01 X3.7337 Y8.8263
G01 X3.7337 Y7.0737
G01 X4.1655 Y7.5055
G01 X5.0545 Y7.5055
G01 X5.0545 Y8.3945
G01 X4.1655 Y8.3945
G01 X4.1655 Y7.5055
G00 Z5.0
G00 X3.7337 Y4.5337
G00 Z0.0
G01 X5.4863 Y4.5337 F1000
G01 X5.4863 Y6.2863
G01 X3.7337 Y6.2863
G01 X3.7337 Y4.5337
G01 X4.1655 Y4.9655
G01 X5.0545 Y4.9655
G01 X5.0545 Y5.8545
G01 X4.1655 Y5.8545
G01 X4.1655 Y4.9655
G00 Z5.0
G00 X26.5937 Y4.5337
G00 Z0.0
G01 X28.3463 Y4.5337 F1000
G01 X28.3463 Y6.2863
G01 X26.5937 Y6.2863
G01 X26.5937 Y4.5337
G01 X27.0255 Y4.9655
G01 X27.9145 Y4.9655
G01 X27.9145 Y5.8545
G01 X27.0255 Y5.8545
G01 X27.0255 Y4.9655
G00 Z5.0
G00 X26.5937 Y7.0737
G00 Z0.0
G01 X28.3463 Y7.0737 F1000
G01 X28.3463 Y8.8263
G01 X26.5937 Y8.8263
G01 X26.5937 Y7.0737
G01 X27.0255 Y7.5055
G01 X27.9145 Y7.5055
G01 X27.9145 Y8.3945
G01 X27.0255 Y8.3945
G01 X27.0255 Y7.5055
G00 Z5.0
G00 X26.5937 Y9.6137
G00 Z0.0
G01 X28.3463 Y9.6137 F1000
G01 X28.3463 Y11.3663
G01 X26.5937 Y11.3663
G01 X26.5937 Y9.6137
G01 X27.0255 Y10.0455
G01 X27.9145 Y10.0455
G01 X27.9145 Y10.9345
G01 X27.0255 Y10.9345
G01 X27.0255 Y10.0455
G00 Z5.0
G00 X26.5937 Y12.1537
G00 Z0.0
G01 X28.3463 Y12.1537 F1000
G01 X28.3463 Y13.9063
G01 X26.5937 Y13.9063
G01 X26.5937 Y12.1537
G01 X27.0255 Y12.5855
G01 X27.9145 Y12.5855
G01 X27.9145 Y13.4745
G01 X27.0255 Y13.4745
G01 X27.0255 Y12.5855
G00 Z5.0
G00 X26.5937 Y14.6937
G00 Z0.0
G01 X28.3463 Y14.6937 F1000
G01 X28.3463 Y16.4463
G01 X26.5937 Y16.4463
G01 X26.5937 Y14.6937
G01 X27.0255 Y15.1255
G01 X27.9145 Y15.1255
G01 X27.9145 Y16.0145
G01 X27.0255 Y16.0145
G01 X27.0255 Y15.1255
G00 Z5.0
G00 X26.5937 Y17.2337
G00 Z0.0
G01 X28.3463 Y17.2337 F1000
G01 X28.3463 Y18.9863
G01 X26.5937 Y18.9863
G01 X26.5937 Y17.2337
G01 X27.0255 Y17.6655
G01 X27.9145 Y17.6655
G01 X27.9145 Y18.5545
G01 X27.0255 Y18.5545
G01 X27.0255 Y17.6655
G00 Z5.0
G00 X26.5937 Y19.7737
G00 Z0.0
G01 X28.3463 Y19.7737 F1000
G01 X28.3463 Y21.5263
G01 X26.5937 Y21.5263
G01 X26.5937 Y19.7737
G01 X27.0255 Y20.2055
G01 X27.9145 Y20.2055
G01 X27.9145 Y21.0945
G01 X27.0255 Y21.0945
G01 X27.0255 Y20.2055
G00 Z5.0
G00 X26.5937 Y22.3137
G00 Z0.0
G01 X28.3463 Y22.3137 F1000
G01 X28.3463 Y24.0663
G01 X26.5937 Y24.0663
G01 X26.5937 Y22.3137
G01 X27.0255 Y22.7455
G01 X27.9145 Y22.7455
G01 X27.9145 Y23.6345
G01 X27.0255 Y23.6345
G01 X27.0255 Y22.7455
G00 Z5.0
G00 X26.5937 Y24.8537
G00 Z0.0
G01 X28.3463 Y24.8537 F1000
G01 X28.3463 Y26.6063
G01 X26.5937 Y26.6063
G01 X26.5937 Y24.8537
G01 X27.0255 Y25.2855
G01 X27.9145 Y25.2855
G01 X27.9145 Y26.1745
G01 X27.0255 Y26.1745
G01 X27.0255 Y25.2855
G00 Z5.0
G00 X26.5937 Y27.3937
G00 Z0.0
G01 X28.3463 Y27.3937 F1000
G01 X28.3463 Y29.1463
G01 X26.5937 Y29.1463
G01 X26.5937 Y27.3937
G01 X27.0255 Y27.8255
G01 X27.9145 Y27.8255
G01 X27.9145 Y28.7145
G01 X27.0255 Y28.7145
G01 X27.0255 Y27.8255
G00 Z5.0
G00 X26.5937 Y29.9337
G00 Z0.0
G01 X28.3463 Y29.9337 F1000
G01 X28.3463 Y31.6863
G01 X26.5937 Y31.6863
G01 X26.5937 Y29.9337
G01 X27.0255 Y30.3655
G01 X27.9145 Y30.3655
G01 X27.9145 Y31.2545
G01 X27.0255 Y31.2545
G01 X27.0255 Y30.3655
G00 Z5.0
G00 X26.5937 Y32.4737
G00 Z0.0
G01 X28.3463 Y32.4737 F1000
G01 X28.3463 Y34.2263
G01 X26.5937 Y34.2263
G01 X26.5937 Y32.4737
G01 X27.0255 Y32.9055
G01 X27.9145 Y32.9055
G01 X27.9145 Y33.7945
G01 X27.0255 Y33.7945
G01 X27.0255 Y32.9055
G00 Z5.0
G00 X26.5937 Y35.0137
G00 Z0.0
G01 X28.3463 Y35.0137 F1000
G01 X28.3463 Y36.7663
G01 X26.5937 Y36.7663
G01 X26.5937 Y35.0137
G01 X27.0255 Y35.4455
G01 X27.9145 Y35.4455
G01 X27.9145 Y36.3345
G01 X27.0255 Y36.3345
G01 X27.0255 Y35.4455
G00 Z5.0
G00 X26.5937 Y37.5537
G00 Z0.0
G01 X28.3463 Y37.5537 F1000
G01 X28.3463 Y39.3063
G01 X26.5937 Y39.3063
G01 X26.5937 Y37.5537
G01 X27.0255 Y37.9855
G01 X27.9145 Y37.9855
G01 X27.9145 Y38.8745
G01 X27.0255 Y38.8745
G01 X27.0255 Y37.9855
G00 Z5.0
G00 X26.5937 Y40.0937
G00 Z0.0
G01 X28.3463 Y40.0937 F1000
G01 X28.3463 Y41.8463
G01 X26.5937 Y41.8463
G01 X26.5937 Y40.0937
G01 X27.0255 Y40.5255
G01 X27.9145 Y40.5255
G01 X27.9145 Y41.4145
G01 X27.0255 Y41.4145
G01 X27.0255 Y40.5255
G00 Z5.0
G00 X24.0500 Y35.3500
G00 Z0.0
G01 X25.1500 Y35.3500 F1000
G01 X25.1500 Y36.4500
G01 X24.0500 Y36.4500
G01 X24.0500 Y35.3500
G01 X24.3500 Y35.6500
G01 X24.8500 Y35.6500
G01 X24.8500 Y36.1500
G01 X24.3500 Y36.1500
G01 X24.3500 Y35.6500
G00 Z5.0
G00 X19.1500 Y35.4500
G00 Z0.0
G01 X20.2500 Y35.4500 F1000
G01 X20.2500 Y36.5500
G01 X19.1500 Y36.5500
G01 X19.1500 Y35.4500
G01 X19.4500 Y35.7500
G01 X19.9500 Y35.7500
G01 X19.9500 Y36.2500
G01 X19.4500 Y36.2500
G01 X19.4500 Y35.7500
G00 Z5.0
G00 X32.6500 Y27.8500
G00 Z0.0
G01 X33.7500 Y27.8500 F1000
G01 X33.7500 Y28.9500
G01 X32.6500 Y28.9500
G01 X32.6500 Y27.8500
G01 X32.9500 Y28.1500
G01 X33.4500 Y28.1500
G01 X33.4500 Y28.6500
G01 X32.9500 Y28.6500
G01 X32.9500 Y28.1500
G00 Z5.0
G00 X36.5560 Y27.6980
G00 Z0.0
G01 X39.6040 Y27.6980 F1000
G01 X39.6040 Y29.2220
G01 X36.5560 Y29.2220
G01 X36.5560 Y27.6980
G01 X37.5720 Y27.9520
G01 X38.5880 Y27.9520
G01 X38.5880 Y28.9680
G01 X37.5720 Y28.9680
G01 X37.5720 Y27.9520
G00 Z5.0
G00 X36.5560 Y30.2380
G00 Z0.0
G01 X39.6040 Y30.2380 F1000
G01 X39.6040 Y31.7620
G01 X36.5560 Y31.7620
G01 X36.5560 Y30.2380
G01 X37.5720 Y30.4920
G01 X38.5880 Y30.4920
G01 X38.5880 Y31.5080
G01 X37.5720 Y31.5080
G01 X37.5720 Y30.4920
G00 Z5.0
G00 X36.5560 Y32.7780
G00 Z0.0
G01 X39.6040 Y32.7780 F1000
G01 X39.6040 Y34.3020
G01 X36.5560 Y34.3020
G01 X36.5560 Y32.7780
G01 X37.5720 Y33.0320
G01 X38.5880 Y33.0320
G01 X38.5880 Y34.0480
G01 X37.5720 Y34.0480
G01 X37.5720 Y33.0320
G00 Z5.0
G00 X36.5560 Y35.3180
G00 Z0.0
G01 X39.6040 Y35.3180 F1000
G01 X39.6040 Y36.8420
G01 X36.5560 Y36.8420
G01 X36.5560 Y35.3180
G01 X37.5720 Y35.5720
G01 X38.5880 Y35.5720
G01 X38.5880 Y36.5880
G01 X37.5720 Y36.5880
G01 X37.5720 Y35.5720
G00 Z5.0
G00 X36.5560 Y37.8580
G00 Z0.0
G01 X39.6040 Y37.8580 F1000
G01 X39.6040 Y39.3820
G01 X36.5560 Y39.3820
G01 X36.5560 Y37.8580
G01 X37.5720 Y38.1120
G01 X38.5880 Y38.1120
G01 X38.5880 Y39.1280
G01 X37.5720 Y39.1280
G01 X37.5720 Y38.1120
G00 Z5.0
G00 X36.5560 Y40.3980
G00 Z0.0
G01 X39.6040 Y40.3980 F1000
G01 X39.6040 Y41.9220
G01 X36.5560 Y41.9220
G01 X36.5560 Y40.3980
G01 X37.5720 Y40.6520
G01 X38.5880 Y40.6520
G01 X38.5880 Y41.6680
G01 X37.5720 Y41.6680
G01 X37.5720 Y40.6520
G00 Z5.0
G00 X36.5560 Y42.9380
G00 Z0.0
G01 X39.6040 Y42.9380 F1000
G01 X39.6040 Y44.4620
G01 X36.5560 Y44.4620
G01 X36.5560 Y42.9380
G01 X37.5720 Y43.1920
G01 X38.5880 Y43.1920
G01 X38.5880 Y44.2080
G01 X37.5720 Y44.2080
G01 X37.5720 Y43.1920
G00 Z5.0
G00 X36.5560 Y45.4780
G00 Z0.0
G01 X39.6040 Y45.4780 F1000
G01 X39.6040 Y47.0020
G01 X36.5560 Y47.0020
G01 X36.5560 Y45.4780
G01 X37.5720 Y45.7320
G01 X38.5880 Y45.7320
G01 X38.5880 Y46.7480
G01 X37.5720 Y46.7480
G01 X37.5720 Y45.7320
G00 Z5.0
G00 X50.1257 Y45.7257
G00 Z0.0
G01 X51.9143 Y45.7257 F1000
G01 X51.9143 Y47.5143
G01 X50.1257 Y47.5143
G01 X50.1257 Y45.7257
G01 X50.6135 Y46.2135
G01 X51.4265 Y46.2135
G01 X51.4265 Y47.0265
G01 X50.6135 Y47.0265
G01 X50.6135 Y46.2135
G00 Z5.0
G00 X50.1257 Y48.2657
G00 Z0.0
G01 X51.9143 Y48.2657 F1000
G01 X51.9143 Y50.0543
G01 X50.1257 Y50.0543
G01 X50.1257 Y48.2657
G01 X50.6135 Y48.7535
G01 X51.4265 Y48.7535
G01 X51.4265 Y49.5665
G01 X50.6135 Y49.5665
G01 X50.6135 Y48.7535
G00 Z5.0
G00 X51.9250 Y52.2250
G00 Z0.0
G01 X53.2750 Y52.2250 F1000
G01 X53.2750 Y53.5750
G01 X51.9250 Y53.5750
G01 X51.9250 Y52.2250
G01 X52.1500 Y52.4500
G01 X53.0500 Y52.4500
G01 X53.0500 Y53.3500
G01 X52.1500 Y53.3500
G01 X52.1500 Y52.4500
G00 Z5.0
G00 X56.6357 Y48.6057
G00 Z0.0
G01 X58.4243 Y48.6057 F1000
G01 X58.4243 Y50.3943
G01 X56.6357 Y50.3943
G01 X56.6357 Y48.6057
G01 X57.1235 Y49.0935
G01 X57.9365 Y49.0935
G01 X57.9365 Y49.9065
G01 X57.1235 Y49.9065
G01 X57.1235 Y49.0935
G00 Z5.0
G00 X56.6357 Y46.0657
G00 Z0.0
G01 X58.4243 Y46.0657 F1000
G01 X58.4243 Y47.8543
G01 X56.6357 Y47.8543
G01 X56.6357 Y46.0657
G01 X57.1235 Y46.5535
G01 X57.9365 Y46.5535
G01 X57.9365 Y47.3665
G01 X57.1235 Y47.3665
G01 X57.1235 Y46.5535
G00 Z5.0
G00 X57.5610 Y32.7160
G00 Z0.0
G01 X59.0690 Y32.7160 F1000
G01 X59.0690 Y34.2240
G01 X57.5610 Y34.2240
G01 X57.5610 Y32.7160
G01 X57.8150 Y32.9700
G01 X58.8150 Y32.9700
G01 X58.8150 Y33.9700
G01 X57.8150 Y33.9700
G01 X57.8150 Y32.9700
G00 Z5.0
G00 X55.0210 Y32.7160
G00 Z0.0
G01 X56.5290 Y32.7160 F1000
G01 X56.5290 Y34.2240
G01 X55.0210 Y34.2240
G01 X55.0210 Y32.7160
G01 X55.2750 Y32.9700
G01 X56.2750 Y32.9700
G01 X56.2750 Y33.9700
G01 X55.2750 Y33.9700
G01 X55.2750 Y32.9700
G00 Z5.0
G00 X60.1010 Y32.7160
G00 Z0.0
G01 X61.6090 Y32.7160 F1000
G01 X61.6090 Y34.2240
G01 X60.1010 Y34.2240
G01 X60.1010 Y32.7160
G01 X60.3550 Y32.9700
G01 X61.3550 Y32.9700
G01 X61.3550 Y33.9700
G01 X60.3550 Y33.9700
G01 X60.3550 Y32.9700
G00 Z5.0
G00 X62.6410 Y32.7160
G00 Z0.0
G01 X64.1490 Y32.7160 F1000
G01 X64.1490 Y34.2240
G01 X62.6410 Y34.2240
G01 X62.6410 Y32.7160
G01 X62.8950 Y32.9700
G01 X63.8950 Y32.9700
G01 X63.8950 Y33.9700
G01 X62.8950 Y33.9700
G01 X62.8950 Y32.9700
G00 Z5.0
G00 X65.1810 Y32.7160
G00 Z0.0
G01 X66.6890 Y32.7160 F1000
G01 X66.6890 Y34.2240
G01 X65.1810 Y34.2240
G01 X65.1810 Y32.7160
G01 X65.4350 Y32.9700
G01 X66.4350 Y32.9700
G01 X66.4350 Y33.9700
G01 X65.4350 Y33.9700
G01 X65.4350 Y32.9700
G00 Z5.0
G00 X67.7210 Y32.7160
G00 Z0.0
G01 X69.2290 Y32.7160 F1000
G01 X69.2290 Y34.2240
G01 X67.7210 Y34.2240
G01 X67.7210 Y32.7160
G01 X67.9750 Y32.9700
G01 X68.9750 Y32.9700
G01 X68.9750 Y33.9700
G01 X67.9750 Y33.9700
G01 X67.9750 Y32.9700
G00 Z5.0
G00 X70.2610 Y32.7160
G00 Z0.0
G01 X71.7690 Y32.7160 F1000
G01 X71.7690 Y34.2240
G01 X70.2610 Y34.2240
G01 X70.2610 Y32.7160
G01 X70.5150 Y32.9700
G01 X71.5150 Y32.9700
G01 X71.5150 Y33.9700
G01 X70.5150 Y33.9700
G01 X70.5150 Y32.9700
G00 Z5.0
G00 X72.8010 Y32.7160
G00 Z0.0
G01 X74.3090 Y32.7160 F1000
G01 X74.3090 Y34.2240
G01 X72.8010 Y34.2240
G01 X72.8010 Y32.7160
G01 X73.0550 Y32.9700
G01 X74.0550 Y32.9700
G01 X74.0550 Y33.9700
G01 X73.0550 Y33.9700
G01 X73.0550 Y32.9700
G00 Z5.0
G00 X68.1000 Y30.0000
G00 Z0.0
G01 X69.2000 Y30.0000 F1000
G01 X69.2000 Y31.1000
G01 X68.1000 Y31.1000
G01 X68.1000 Y30.0000
G01 X68.4000 Y30.3000
G01 X68.9000 Y30.3000
G01 X68.9000 Y30.8000
G01 X68.4000 Y30.8000
G01 X68.4000 Y30.3000
G00 Z5.0
G00 X62.8500 Y30.1500
G00 Z0.0
G01 X63.9500 Y30.1500 F1000
G01 X63.9500 Y31.2500
G01 X62.8500 Y31.2500
G01 X62.8500 Y30.1500
G01 X63.1500 Y30.4500
G01 X63.6500 Y30.4500
G01 X63.6500 Y30.9500
G01 X63.1500 Y30.9500
G01 X63.1500 Y30.4500
G00 Z5.0
G00 X70.3000 Y39.9000
G00 Z0.0
G01 X71.4000 Y39.9000 F1000
G01 X71.4000 Y41.0000
G01 X70.3000 Y41.0000
G01 X70.3000 Y39.9000
G01 X70.6000 Y40.2000
G01 X71.1000 Y40.2000
G01 X71.1000 Y40.7000
G01 X70.6000 Y40.7000
G01 X70.6000 Y40.2000
G00 Z5.0
G00 X72.8010 Y55.5760
G00 Z0.0
G01 X74.3090 Y55.5760 F1000
G01 X74.3090 Y57.0840
G01 X72.8010 Y57.0840
G01 X72.8010 Y55.5760
G01 X73.0550 Y55.8300
G01 X74.0550 Y55.8300
G01 X74.0550 Y56.8300
G01 X73.0550 Y56.8300
G01 X73.0550 Y55.8300
G00 Z5.0
G00 X73.1360 Y62.1580
G00 Z0.0
G01 X76.1840 Y62.1580 F1000
G01 X76.1840 Y63.6820
G01 X73.1360 Y63.6820
G01 X73.1360 Y62.1580
G01 X74.1520 Y62.4120
G01 X75.1680 Y62.4120
G01 X75.1680 Y63.4280
G01 X74.1520 Y63.4280
G01 X74.1520 Y62.4120
G00 Z5.0
G00 X73.1360 Y64.6980
G00 Z0.0
G01 X76.1840 Y64.6980 F1000
G01 X76.1840 Y66.2220
G01 X73.1360 Y66.2220
G01 X73.1360 Y64.6980
G01 X74.1520 Y64.9520
G01 X75.1680 Y64.9520
G01 X75.1680 Y65.9680
G01 X74.1520 Y65.9680
G01 X74.1520 Y64.9520
G00 Z5.0
G00 X62.8800 Y64.6800
G00 Z0.0
G01 X64.7400 Y64.6800 F1000
G01 X64.7400 Y66.5400
G01 X62.8800 Y66.5400
G01 X62.8800 Y64.6800
G01 X63.1900 Y64.9900
G01 X64.4300 Y64.9900
G01 X64.4300 Y66.2300
G01 X63.1900 Y66.2300
G01 X63.1900 Y64.9900
G00 Z5.0
G00 X60.3400 Y64.6800
G00 Z0.0
G01 X62.2000 Y64.6800 F1000
G01 X62.2000 Y66.5400
G01 X60.3400 Y66.5400
G01 X60.3400 Y64.6800
G01 X60.6500 Y64.9900
G01 X61.8900 Y64.9900
G01 X61.8900 Y66.2300
G01 X60.6500 Y66.2300
G01 X60.6500 Y64.9900
G00 Z5.0
G00 X57.8000 Y64.6800
G00 Z0.0
G01 X59.6600 Y64.6800 F1000
G01 X59.6600 Y66.5400
G01 X57.8000 Y66.5400
G01 X57.8000 Y64.6800
G01 X58.1100 Y64.9900
G01 X59.3500 Y64.9900
G01 X59.3500 Y66.2300
G01 X58.1100 Y66.2300
G01 X58.1100 Y64.9900
G00 Z5.0
G00 X48.0736 Y19.0888
G00 Z0.0
G01 X50.9184 Y19.0888 F1000
G01 X50.9184 Y20.5112
G01 X48.0736 Y20.5112
G01 X48.0736 Y19.0888
G01 X49.0390 Y19.3430
G01 X49.9530 Y19.3430
G01 X49.9530 Y20.2570
G01 X49.0390 Y20.2570
G01 X49.0390 Y19.3430
G00 Z5.0
G00 X48.0736 Y16.5488
G00 Z0.0
G01 X50.9184 Y16.5488 F1000
G01 X50.9184 Y17.9712
G01 X48.0736 Y17.9712
G01 X48.0736 Y16.5488
G01 X49.0390 Y16.8030
G01 X49.9530 Y16.8030
G01 X49.9530 Y17.7170
G01 X49.0390 Y17.7170
G01 X49.0390 Y16.8030
G00 Z5.0
G00 X48.0736 Y14.0088
G00 Z0.0
G01 X50.9184 Y14.0088 F1000
G01 X50.9184 Y15.4312
G01 X48.0736 Y15.4312
G01 X48.0736 Y14.0088
G01 X49.0390 Y14.2630
G01 X49.9530 Y14.2630
G01 X49.9530 Y15.1770
G01 X49.0390 Y15.1770
G01 X49.0390 Y14.2630
G00 Z5.0
G00 X48.0736 Y11.4688
G00 Z0.0
G01 X50.9184 Y11.4688 F1000
G01 X50.9184 Y12.8912
G01 X48.0736 Y12.8912
G01 X48.0736 Y11.4688
G01 X49.0390 Y11.7230
G01 X49.9530 Y11.7230
G01 X49.9530 Y12.6370
G01 X49.0390 Y12.6370
G01 X49.0390 Y11.7230
G00 Z5.0
G00 X48.0736 Y8.9288
G00 Z0.0
G01 X50.9184 Y8.9288 F1000
G01 X50.9184 Y10.3512
G01 X48.0736 Y10.3512
G01 X48.0736 Y8.9288
G01 X49.0390 Y9.1830
G01 X49.9530 Y9.1830
G01 X49.9530 Y10.0970
G01 X49.0390 Y10.0970
G01 X49.0390 Y9.1830
G00 Z5.0
G00 X48.0736 Y6.3888
G00 Z0.0
G01 X50.9184 Y6.3888 F1000
G01 X50.9184 Y7.8112
G01 X48.0736 Y7.8112
G01 X48.0736 Y6.3888
G01 X49.0390 Y6.6430
G01 X49.9530 Y6.6430
G01 X49.9530 Y7.5570
G01 X49.0390 Y7.5570
G01 X49.0390 Y6.6430
G00 Z5.0
G00 X45.3500 Y5.9500
G00 Z0.0
G01 X46.4500 Y5.9500 F1000
G01 X46.4500 Y7.0500
G01 X45.3500 Y7.0500
G01 X45.3500 Y5.9500
G01 X45.6500 Y6.2500
G01 X46.1500 Y6.2500
G01 X46.1500 Y6.7500
G01 X45.6500 Y6.7500
G01 X45.6500 Y6.2500
G00 Z5.0
G00 X41.5500 Y6.0500
G00 Z0.0
G01 X42.6500 Y6.0500 F1000
G01 X42.6500 Y7.1500
G01 X41.5500 Y7.1500
G01 X41.5500 Y6.0500
G01 X41.8500 Y6.3500
G01 X42.3500 Y6.3500
G01 X42.3500 Y6.8500
G01 X41.8500 Y6.8500
G01 X41.8500 Y6.3500
G00 Z5.0
G00 X38.1080 Y4.9360
G00 Z0.0
G01 X39.6320 Y4.9360 F1000
G01 X39.6320 Y7.9840
G01 X38.1080 Y7.9840
G01 X38.1080 Y4.9360
G01 X38.3620 Y5.9520
G01 X39.3780 Y5.9520
G01 X39.3780 Y6.9680
G01 X38.3620 Y6.9680
G01 X38.3620 Y5.9520
G00 Z5.0
G00 X35.5680 Y4.9360
G00 Z0.0
G01 X37.0920 Y4.9360 F1000
G01 X37.0920 Y7.9840
G01 X35.5680 Y7.9840
G01 X35.5680 Y4.9360
G01 X35.8220 Y5.9520
G01 X36.8380 Y5.9520
G01 X36.8380 Y6.9680
G01 X35.8220 Y6.9680
G01 X35.8220 Y5.9520
G00 Z5.0
G00 X33.0280 Y4.9360
G00 Z0.0
G01 X34.5520 Y4.9360 F1000
G01 X34.5520 Y7.9840
G01 X33.0280 Y7.9840
G01 X33.0280 Y4.9360
G01 X33.2820 Y5.9520
G01 X34.2980 Y5.9520
G01 X34.2980 Y6.9680
G01 X33.2820 Y6.9680
G01 X33.2820 Y5.9520
G00 Z5.0
G00 X32.7000 Y12.7000
G00 Z0.0
G01 X33.8000 Y12.7000 F1000
G01 X33.8000 Y13.8000
G01 X32.7000 Y13.8000
G01 X32.7000 Y12.7000
G01 X33.0000 Y13.0000
G01 X33.5000 Y13.0000
G01 X33.5000 Y13.5000
G01 X33.0000 Y13.5000
G01 X33.0000 Y13.0000
G00 Z5.0
G00 X35.7500 Y14.9500
G00 Z0.0
G01 X36.8500 Y14.9500 F1000
G01 X36.8500 Y16.0500
G01 X35.7500 Y16.0500
G01 X35.7500 Y14.9500
G01 X36.0500 Y15.2500
G01 X36.5500 Y15.2500
G01 X36.5500 Y15.7500
G01 X36.0500 Y15.7500
G01 X36.0500 Y15.2500
G00 Z5.0
G00 X35.7500 Y20.0500
G00 Z0.0
G01 X36.8500 Y20.0500 F1000
G01 X36.8500 Y21.1500
G01 X35.7500 Y21.1500
G01 X35.7500 Y20.0500
G01 X36.0500 Y20.3500
G01 X36.5500 Y20.3500
G01 X36.5500 Y20.8500
G01 X36.0500 Y20.8500
G01 X36.0500 Y20.3500
G00 Z5.0
G00 X40.3760 Y12.4080
G00 Z0.0
G01 X43.4240 Y12.4080 F1000
G01 X43.4240 Y13.9320
G01 X40.3760 Y13.9320
G01 X40.3760 Y12.4080
G01 X41.3920 Y12.6620
G01 X42.4080 Y12.6620
G01 X42.4080 Y13.6780
G01 X41.3920 Y13.6780
G01 X41.3920 Y12.6620
G00 Z5.0
G00 X40.3760 Y9.8680
G00 Z0.0
G01 X43.4240 Y9.8680 F1000
G01 X43.4240 Y11.3920
G01 X40.3760 Y11.3920
G01 X40.3760 Y9.8680
G01 X41.3920 Y10.1220
G01 X42.4080 Y10.1220
G01 X42.4080 Y11.1380
G01 X41.3920 Y11.1380
G01 X41.3920 Y10.1220
G00 Z5.0
G00 X68.3936 Y8.9288
G00 Z0.0
G01 X71.2384 Y8.9288 F1000
G01 X71.2384 Y10.3512
G01 X68.3936 Y10.3512
G01 X68.3936 Y8.9288
G01 X69.3590 Y9.1830
G01 X70.2730 Y9.1830
G01 X70.2730 Y10.0970
G01 X69.3590 Y10.0970
G01 X69.3590 Y9.1830
G00 Z5.0
G00 X68.3936 Y11.4688
G00 Z0.0
G01 X71.2384 Y11.4688 F1000
G01 X71.2384 Y12.8912
G01 X68.3936 Y12.8912
G01 X68.3936 Y11.4688
G01 X69.3590 Y11.7230
G01 X70.2730 Y11.7230
G01 X70.2730 Y12.6370
G01 X69.3590 Y12.6370
G01 X69.3590 Y11.7230
G00 Z5.0
G00 X68.3936 Y14.0088
G00 Z0.0
G01 X71.2384 Y14.0088 F1000
G01 X71.2384 Y15.4312
G01 X68.3936 Y15.4312
G01 X68.3936 Y14.0088
G01 X69.3590 Y14.2630
G01 X70.2730 Y14.2630
G01 X70.2730 Y15.1770
G01 X69.3590 Y15.1770
G01 X69.3590 Y14.2630
G00 Z5.0
G00 X68.3936 Y16.5488
G00 Z0.0
G01 X71.2384 Y16.5488 F1000
G01 X71.2384 Y17.9712
G01 X68.3936 Y17.9712
G01 X68.3936 Y16.5488
G01 X69.3590 Y16.8030
G01 X70.2730 Y16.8030
G01 X70.2730 Y17.7170
G01 X69.3590 Y17.7170
G01 X69.3590 Y16.8030
G00 Z5.0
G00 X68.3936 Y19.0888
G00 Z0.0
G01 X71.2384 Y19.0888 F1000
G01 X71.2384 Y20.5112
G01 X68.3936 Y20.5112
G01 X68.3936 Y19.0888
G01 X69.3590 Y19.3430
G01 X70.2730 Y19.3430
G01 X70.2730 Y20.2570
G01 X69.3590 Y20.2570
G01 X69.3590 Y19.3430
G00 Z5.0
G00 X68.3936 Y6.3888
G00 Z0.0
G01 X71.2384 Y6.3888 F1000
G01 X71.2384 Y7.8112
G01 X68.3936 Y7.8112
G01 X68.3936 Y6.3888
G01 X69.3590 Y6.6430
G01 X70.2730 Y6.6430
G01 X70.2730 Y7.5570
G01 X69.3590 Y7.5570
G01 X69.3590 Y6.6430
G00 Z5.0
G00 X0.0000 Y0.0000
M02

; Traces: 252 | Pads: 126 (126 with holes) | Pen-ups: 184